NORAD_CAT_ID,OBJECT_NAME,OBJECT_TYPE,EPOCH,MEAN_MOTION,ECCENTRICITY,INCLINATION,RA_OF_ASC_NODE,ARG_OF_PERICENTER,MEAN_ANOMALY,BSTAR,MEAN_MOTION_DOT,MEAN_MOTION_DDOT,TLE_LINE0,TLE_LINE1,TLE_LINE2,SEMIMAJOR_AXIS,PERIOD,APOGEE,PERIGEE,DECAYED
56778.0,STARLINK-6304,PAYLOAD,2024-04-25 15:04:53,14.98334573,0.0003113,70.0003,246.8497,277.1164,82.9641,4.4805e-05,4.42e-06,0.0,0 STARLINK-6304,1 56778U 23078M   24116.62839634  .00000442  00000-0  44805-4 0  9993,2 56778  70.0003 246.8497 0003113 277.1164  82.9641 14.98334573 50856,6950.179,96.107,574.207,569.88,0.0
56778.0,STARLINK-6304,PAYLOAD,2024-04-25 18:17:08,14.98347644,0.0003195,70.0,246.5127,272.1255,87.9538,0.00016476,1.874e-05,0.0,0 STARLINK-6304,1 56778U 23078M   24116.76190290  .00001874  00000-0  16476-3 0  9998,2 56778  70.0000 246.5127 0003195 272.1255  87.9538 14.98347644 51131,6950.138,96.106,574.224,569.783,0.0
56778.0,STARLINK-6304,PAYLOAD,2024-04-26 11:54:38,14.9832405,0.0001983,70.004,244.6659,233.6697,126.428,0.0002568,2.972e-05,0.0,0 STARLINK-6304,1 56778U 23078M   24117.49627441  .00002972  00000-0  25680-3 0  9999,2 56778  70.0040 244.6659 0001983 233.6697 126.4280 14.98324050 51240,6950.211,96.107,573.455,570.698,0.0
56778.0,STARLINK-6304,PAYLOAD,2024-04-26 18:19:10,14.98329085,0.000211,70.0032,243.9911,265.7822,94.3096,0.00030311,3.525e-05,0.0,0 STARLINK-6304,1 56778U 23078M   24117.76331112  .00003525  00000-0  30311-3 0  9998,2 56778  70.0032 243.9911 0002110 265.7822  94.3096 14.98329085 51020,6950.196,96.107,573.527,570.594,0.0
56778.0,STARLINK-6304,PAYLOAD,2024-04-27 11:56:38,14.98339619,0.0002628,70.0019,242.1399,262.099,97.987,-6.7397e-05,-8.97e-06,0.0,0 STARLINK-6304,1 56778U 23078M   24118.49766863 -.00000897  00000-0 -67397-4 0  9990,2 56778  70.0019 242.1399 0002628 262.0990  97.9870 14.98339619 51399,6950.163,96.106,573.855,570.202,0.0
56778.0,STARLINK-6304,PAYLOAD,2024-04-27 15:08:54,14.98347439,0.0003387,70.0006,241.8029,265.8648,94.2124,-7.5336e-05,-9.92e-06,0.0,0 STARLINK-6304,1 56778U 23078M   24118.63118127 -.00000992  00000-0 -75336-4 0  9998,2 56778  70.0006 241.8029 0003387 265.8648  94.2124 14.98347439 51150,6950.139,96.106,574.358,569.65,0.0
56778.0,STARLINK-6304,PAYLOAD,2024-04-27 18:21:09,14.98351015,0.0003111,70.0007,241.4655,265.6467,94.4337,-2.7606e-05,-4.23e-06,0.0,0 STARLINK-6304,1 56778U 23078M   24118.76469635 -.00000423  00000-0 -27606-4 0  9991,2 56778  70.0007 241.4655 0003111 265.6467  94.4337 14.98351015 51438,6950.128,96.106,574.155,569.831,0.0
56778.0,STARLINK-6304,PAYLOAD,2024-04-28 11:58:40,14.98322289,0.0003333,70.0009,239.6144,274.7057,85.3722,-0.00027307,-3.349e-05,0.0,0 STARLINK-6304,1 56778U 23078M   24119.49908256 -.00003349  00000-0 -27307-3 0  9996,2 56778  70.0009 239.6144 0003333 274.7057  85.3722 14.98322289 51544,6950.217,96.107,574.398,569.765,0.0
56778.0,STARLINK-6304,PAYLOAD,2024-04-28 18:23:12,14.9832561,0.0003009,70.0007,238.9405,266.2475,93.834,-0.00022177,-2.738e-05,0.0,0 STARLINK-6304,1 56778U 23078M   24119.76611923 -.00002738  00000-0 -22177-3 0  9999,2 56778  70.0007 238.9405 0003009 266.2475  93.8340 14.98325610 51321,6950.206,96.107,574.163,569.98,0.0
56778.0,STARLINK-6304,PAYLOAD,2024-04-29 00:47:44,14.9833409,0.0003118,70.0003,238.2668,270.3251,89.755,-0.00024278,-2.989e-05,0.0,0 STARLINK-6304,1 56778U 23078M   24120.03315448 -.00002989  00000-0 -24278-3 0  9996,2 56778  70.0003 238.2668 0003118 270.3251  89.7550 14.98334090 51622,6950.18,96.107,574.212,569.878,0.0
56778.0,STARLINK-6304,PAYLOAD,2024-04-29 13:36:48,14.98332329,0.0003199,70.0002,236.92,265.9789,94.1004,-4.4514e-05,-6.24e-06,0.0,0 STARLINK-6304,1 56778U 23078M   24120.56723115 -.00000624  00000-0 -44514-4 0  9998,2 56778  70.0002 236.9200 0003199 265.9789  94.1004 14.98332329 51440,6950.186,96.107,574.274,569.827,0.0
56778.0,STARLINK-6304,PAYLOAD,2024-04-29 16:49:04,14.98335812,0.0003135,70.0002,236.5831,267.6948,92.3852,-4.9695e-06,-1.52e-06,0.0,0 STARLINK-6304,1 56778U 23078M   24120.70074782 -.00000152  00000-0 -49695-5 0  9995,2 56778  70.0002 236.5831 0003135 267.6948  92.3852 14.98335812 51724,6950.175,96.107,574.219,569.861,0.0
56778.0,STARLINK-6304,PAYLOAD,2024-04-30 10:26:33,14.98324946,0.0002993,70.0004,234.7317,267.9224,92.1592,0.00015594,1.768e-05,0.0,0 STARLINK-6304,1 56778U 23078M   24121.43511048  .00001768  00000-0  15594-3 0  9998,2 56778  70.0004 234.7317 0002993 267.9224  92.1592 14.98324946 51833,6950.209,96.107,574.154,569.993,0.0
56778.0,STARLINK-6304,PAYLOAD,2024-04-30 13:38:49,14.98326873,0.0002983,70.0005,234.3952,267.6336,92.4481,0.00017092,1.947e-05,0.0,0 STARLINK-6304,1 56778U 23078M   24121.56862915  .00001947  00000-0  17092-3 0  9998,2 56778  70.0005 234.3952 0002983 267.6336  92.4481 14.98326873 51599,6950.203,96.107,574.141,569.994,0.0
56778.0,STARLINK-6304,PAYLOAD,2024-04-30 16:51:05,14.98326753,0.0002991,70.0006,234.0586,267.2805,92.8012,0.00016024,1.819e-05,0.0,0 STARLINK-6304,1 56778U 23078M   24121.70214967  .00001819  00000-0  16024-3 0  9994,2 56778  70.0006 234.0586 0002991 267.2805  92.8012 14.98326753 51610,6950.203,96.107,574.147,569.989,0.0
56778.0,STARLINK-6304,PAYLOAD,2024-05-01 07:16:18,14.98334943,0.0002926,70.0008,232.5441,266.9999,93.0825,4.9018e-05,4.92e-06,0.0,0 STARLINK-6304,1 56778U 23078M   24122.30298713  .00000492  00000-0  49018-4 0  9998,2 56778  70.0008 232.5441 0002926 266.9999  93.0825 14.98334943 51966,6950.178,96.107,574.076,570.009,0.0
56778.0,STARLINK-6304,PAYLOAD,2024-05-01 13:40:50,14.98337814,0.0003039,70.0005,231.8705,268.845,91.2361,3.1091e-05,2.78e-06,0.0,0 STARLINK-6304,1 56778U 23078M   24122.57002452  .00000278  00000-0  31091-4 0  9994,2 56778  70.0005 231.8705 0003039 268.8450  91.2361 14.98337814 51748,6950.169,96.106,574.146,569.922,0.0
56778.0,STARLINK-6304,PAYLOAD,2024-05-02 13:42:51,14.98331142,0.0002997,70.0,229.3451,266.7157,93.3659,-8.4824e-05,-1.105e-05,0.0,0 STARLINK-6304,1 56778U 23078M   24123.57142980 -.00001105  00000-0 -84824-4 0  9990,2 56778  70.0000 229.3451 0002997 266.7157  93.3659 14.98331142 52153,6950.189,96.107,574.137,569.971,0.0
56778.0,STARLINK-6304,PAYLOAD,2024-05-03 00:55:47,14.98336428,0.0003016,70.0005,228.1674,267.8017,92.2797,-4.502e-06,-1.47e-06,0.0,0 STARLINK-6304,1 56778U 23078M   24124.03874338 -.00000147  00000-0 -45020-5 0  9992,2 56778  70.0005 228.1674 0003016 267.8017  92.2797 14.98336428 52223,6950.173,96.107,574.134,569.942,0.0
56778.0,STARLINK-6304,PAYLOAD,2024-05-03 10:32:35,14.98347636,0.0002741,70.0001,227.1573,269.5344,90.5501,-1.2456e-05,-2.42e-06,0.0,0 STARLINK-6304,1 56778U 23078M   24124.43929437 -.00000242  00000-0 -12456-4 0  9999,2 56778  70.0001 227.1573 0002741 269.5344  90.5501 14.98347636 52285,6950.138,96.106,573.908,570.098,0.0
56778.0,STARLINK-6304,PAYLOAD,2024-05-03 13:44:50,14.98335784,0.0003322,70.0001,226.8208,270.0636,90.0143,0.00030677,3.57e-05,0.0,0 STARLINK-6304,1 56778U 23078M   24124.57281173  .00003570  00000-0  30677-3 0  9991,2 56778  70.0001 226.8208 0003322 270.0636  90.0143 14.98335784 52045,6950.175,96.107,574.349,569.731,0.0
56778.0,STARLINK-6304,PAYLOAD,2024-05-03 16:57:06,14.98348309,0.000289,70.0001,226.4844,267.1994,92.8834,9.2378e-05,1.01e-05,0.0,0 STARLINK-6304,1 56778U 23078M   24124.70632803  .00001010  00000-0  92378-4 0  9990,2 56778  70.0001 226.4844 0002890 267.1994  92.8834 14.98348309 52066,6950.136,96.106,574.01,569.993,0.0
56778.0,STARLINK-6304,PAYLOAD,2024-05-04 12:10:45,14.98315445,0.0003219,70.0,224.4647,268.8123,91.2667,-5.4645e-05,-7.45e-06,0.0,0 STARLINK-6304,1 56778U 23078M   24125.50747419 -.00000745  00000-0 -54645-4 0  9990,2 56778  70.0000 224.4647 0003219 268.8123  91.2667 14.98315445 52446,6950.238,96.108,574.34,569.866,0.0
56778.0,STARLINK-6304,PAYLOAD,2024-05-04 23:23:41,14.98325315,0.0003263,69.9999,223.2865,268.7119,91.3666,-6.9686e-05,-9.24e-06,0.0,0 STARLINK-6304,1 56778U 23078M   24125.97479023 -.00000924  00000-0 -69686-4 0  9994,2 56778  69.9999 223.2865 0003263 268.7119  91.3666 14.98325315 52517,6950.207,96.107,574.34,569.805,0.0
56778.0,STARLINK-6304,PAYLOAD,2024-05-05 12:12:46,14.98333728,0.0003095,70.0002,221.94,269.6125,90.4679,-0.00010956,-1.4e-05,0.0,0 STARLINK-6304,1 56778U 23078M   24126.50886680 -.00001400  00000-0 -10956-3 0  9990,2 56778  70.0002 221.9400 0003095 269.6125  90.4679 14.98333728 52594,6950.181,96.107,574.197,569.895,0.0
56778.0,STARLINK-6304,PAYLOAD,2024-05-05 13:48:53,14.98338123,0.000311,70.0001,221.7715,270.5665,89.5138,-7.6485e-05,-1.006e-05,0.0,0 STARLINK-6304,1 56778U 23078M   24126.57562282 -.00001006  00000-0 -76485-4 0  9998,2 56778  70.0001 221.7715 0003110 270.5665  89.5138 14.98338123 52344,6950.168,96.106,574.194,569.871,0.0
56778.0,STARLINK-6304,PAYLOAD,2024-05-05 15:25:01,14.98339392,0.0003108,70.0001,221.6032,270.4209,89.6594,-5.9423e-05,-8.02e-06,0.0,0 STARLINK-6304,1 56778U 23078M   24126.64238121 -.00000802  00000-0 -59423-4 0  9994,2 56778  70.0001 221.6032 0003108 270.4209  89.6594 14.98339392 52611,6950.164,96.106,574.189,569.869,0.0
56778.0,STARLINK-6304,PAYLOAD,2024-05-06 13:50:54,14.98331181,0.0002931,70.0004,219.2471,268.8876,91.1948,0.00019715,2.26e-05,0.0,0 STARLINK-6304,1 56778U 23078M   24127.57701865  .00002260  00000-0  19715-3 0  9994,2 56778  70.0004 219.2471 0002931 268.8876  91.1948 14.98331181 52493,6950.189,96.107,574.091,570.017,0.0
56778.0,STARLINK-6304,PAYLOAD,2024-05-06 15:27:02,14.98332619,0.0002917,70.0004,219.0788,269.0858,90.9966,0.0002092,2.404e-05,0.0,0 STARLINK-6304,1 56778U 23078M   24127.64377734  .00002404  00000-0  20920-3 0  9996,2 56778  70.0004 219.0788 0002917 269.0858  90.9966 14.98332619 52763,6950.185,96.107,574.077,570.022,0.0
56778.0,STARLINK-6304,PAYLOAD,2024-05-06 23:27:43,14.9833128,0.0003097,70.0004,218.2379,265.3684,94.7122,-6.0695e-06,-1.65e-06,0.0,0 STARLINK-6304,1 56778U 23078M   24127.97758263 -.00000165  00000-0 -60695-5 0  9991,2 56778  70.0004 218.2379 0003097 265.3684  94.7122 14.98331280 52811,6950.189,96.107,574.206,569.901,0.0
